{"type": "FeatureCollection", "features": [{"type": "Feature", "properties": {"name": "Big Ride - Transcontinental Training", "date": "2026-05-09"}, "geometry": {"type": "LineString", "coordinates": [[-122.4825, 37.78857], [-122.48354, 37.78786], [-122.48526, 37.78758], [-122.4853, 37.78578], [-122.48862, 37.78519], [-122.49042, 37.78513], [-122.49034, 37.78183], [-122.49439, 37.78156], [-122.49454, 37.77972], [-122.50077, 37.77949], [-122.50862, 37.77996], [-122.5108, 37.77977], [-122.51372, 37.77871], [-122.51143, 37.77541], [-122.51051, 37.76416], [-122.50667, 37.73598], [-122.50722, 37.73272], [-122.50634, 37.72792], [-122.50542, 37.72643], [-122.50333, 37.7251], [-122.50278, 37.72339], [-122.5006, 37.72049], [-122.5003, 37.71797], [-122.49853, 37.71484], [-122.49847, 37.70588], [-122.49509, 37.69829], [-122.49464, 37.69298], [-122.49315, 37.69], [-122.49068, 37.68781], [-122.48982, 37.68608], [-122.49086, 37.67697], [-122.48663, 37.6673], [-122.48665, 37.66423], [-122.48568, 37.66224], [-122.48817, 37.66121], [-122.48844, 37.66057], [-122.49136, 37.66098], [-122.49227, 37.6601], [-122.49196, 37.65565], [-122.49085, 37.65339], [-122.4908, 37.65114], [-122.49278, 37.6452], [-122.4921, 37.63478], [-122.49262, 37.63005], [-122.49114, 37.62951], [-122.48978, 37.62821], [-122.48913, 37.62628], [-122.48554, 37.62249], [-122.48589, 37.61951], [-122.48641, 37.61917], [-122.48544, 37.61778], [-122.48571, 37.61584], [-122.48708, 37.61406], [-122.48892, 37.61394], [-122.48982, 37.61483], [-122.49172, 37.61473], [-122.49317, 37.61362], [-122.49372, 37.61247], [-122.49588, 37.61074], [-122.49638, 37.61084], [-122.497, 37.60991], [-122.49638, 37.60932], [-122.49829, 37.60731], [-122.49881, 37.60492], [-122.49963, 37.60471], [-122.49902, 37.6044], [-122.49866, 37.60156], [-122.50044, 37.59943], [-122.50352, 37.59715], [-122.50324, 37.59664], [-122.50591, 37.59385], [-122.5058, 37.59289], [-122.50385, 37.59051], [-122.50534, 37.58833], [-122.50426, 37.58665], [-122.50447, 37.58582], [-122.50743, 37.58501], [-122.51067, 37.58545], [-122.51393, 37.5852], [-122.51516, 37.58446], [-122.51523, 37.58158], [-122.51694, 37.57894], [-122.51682, 37.57622], [-122.51799, 37.57421], [-122.51608, 37.57191], [-122.5162, 37.57043], [-122.51526, 37.56928], [-122.51625, 37.56827], [-122.51526, 37.56924], [-122.51489, 37.56893], [-122.51265, 37.56459], [-122.51367, 37.5621], [-122.51318, 37.56012], [-122.51468, 37.55849], [-122.51297, 37.55619], [-122.51196, 37.54985], [-122.51251, 37.54788], [-122.51613, 37.5424], [-122.51788, 37.53616], [-122.51787, 37.53362], [-122.51633, 37.53041], [-122.50773, 37.52184], [-122.4947, 37.51454], [-122.48277, 37.50586], [-122.45608, 37.49536], [-122.45414, 37.49421], [-122.4454, 37.48197], [-122.4367, 37.47354], [-122.43403, 37.4703], [-122.4343, 37.46992], [-122.43489, 37.47011], [-122.43386, 37.46982], [-122.43365, 37.46877], [-122.43455, 37.4592], [-122.42898, 37.44814], [-122.42904, 37.44772], [-122.43039, 37.44754], [-122.42886, 37.44754], [-122.4262, 37.42286], [-122.41927, 37.40136], [-122.41753, 37.39844], [-122.40721, 37.38923], [-122.40575, 37.38724], [-122.40458, 37.38307], [-122.40384, 37.37464], [-122.40496, 37.37057], [-122.40466, 37.36598], [-122.40337, 37.36399], [-122.39721, 37.35804], [-122.39709, 37.35641], [-122.39876, 37.35334], [-122.3987, 37.35128], [-122.39691, 37.34673], [-122.39468, 37.34354], [-122.395, 37.34048], [-122.39418, 37.3374], [-122.39146, 37.33831], [-122.39136, 37.3361], [-122.38985, 37.3341], [-122.39012, 37.33328], [-122.39091, 37.33349], [-122.39075, 37.33264], [-122.38741, 37.32953], [-122.38681, 37.32831], [-122.3865, 37.32561], [-122.38857, 37.32378], [-122.38734, 37.32111], [-122.38878, 37.31986], [-122.38914, 37.3192], [-122.39101, 37.31839], [-122.39117, 37.31708], [-122.38831, 37.31438], [-122.38523, 37.3136], [-122.38515, 37.31224], [-122.3861, 37.31235], [-122.38698, 37.31164], [-122.3865, 37.31018], [-122.38508, 37.3096], [-122.386, 37.3089], [-122.38643, 37.30763], [-122.38487, 37.30645], [-122.38604, 37.30518], [-122.38594, 37.30464], [-122.38419, 37.3034], [-122.38341, 37.30448], [-122.38253, 37.30293], [-122.38086, 37.30309], [-122.38031, 37.30254], [-122.38296, 37.29996], [-122.38443, 37.29994], [-122.38398, 37.29725], [-122.38518, 37.29698], [-122.38647, 37.29523], [-122.38461, 37.2963], [-122.38287, 37.29584], [-122.38131, 37.29318], [-122.38114, 37.29164], [-122.37985, 37.29029], [-122.38022, 37.28879], [-122.37955, 37.2883], [-122.37777, 37.28844], [-122.37773, 37.28681], [-122.37562, 37.28582], [-122.37695, 37.28327], [-122.37612, 37.2809], [-122.38205, 37.27782], [-122.38557, 37.27266], [-122.38594, 37.26882], [-122.38477, 37.26164], [-122.38335, 37.25737], [-122.38307, 37.25231], [-122.38301, 37.25172], [-122.37912, 37.25211], [-122.37353, 37.25389], [-122.37164, 37.25281], [-122.36893, 37.24939], [-122.36627, 37.24221], [-122.36788, 37.23961], [-122.36784, 37.23828], [-122.36652, 37.23632], [-122.36204, 37.23409], [-122.35837, 37.23131], [-122.35488, 37.22177], [-122.35003, 37.21682], [-122.34948, 37.21272], [-122.34994, 37.20873], [-122.34726, 37.20309], [-122.34416, 37.20037], [-122.34445, 37.19923], [-122.34645, 37.19777], [-122.34427, 37.19439], [-122.34224, 37.19246], [-122.34113, 37.1921], [-122.34082, 37.18999], [-122.33958, 37.18786], [-122.3407, 37.18613], [-122.3424, 37.18593], [-122.34408, 37.18658], [-122.34561, 37.18655], [-122.34767, 37.1855], [-122.34939, 37.18417], [-122.35, 37.18245], [-122.35152, 37.18195], [-122.35147, 37.18029], [-122.3534, 37.17531], [-122.3534, 37.17343], [-122.35499, 37.1725], [-122.35556, 37.17075], [-122.35793, 37.16918], [-122.35918, 37.16704], [-122.36113, 37.16667], [-122.35992, 37.16376], [-122.35451, 37.15602], [-122.34794, 37.14958], [-122.32325, 37.14118], [-122.32108, 37.13986], [-122.31056, 37.12832], [-122.30266, 37.11517], [-122.29676, 37.1115], [-122.2935, 37.10829], [-122.28562, 37.1027], [-122.28182, 37.09833], [-122.27783, 37.09615], [-122.27536, 37.09387], [-122.27255, 37.08773], [-122.26863, 37.0847], [-122.26385, 37.07915], [-122.2614, 37.07482], [-122.25178, 37.06173], [-122.24223, 37.05225], [-122.22816, 37.03979], [-122.22504, 37.03408], [-122.21863, 37.03024], [-122.21395, 37.02673], [-122.20796, 37.02065], [-122.20054, 37.01413], [-122.18772, 37.00748], [-122.17781, 36.99861], [-122.16675, 36.99225], [-122.15027, 36.98464], [-122.14575, 36.98371], [-122.14078, 36.98134], [-122.1356, 36.97838], [-122.12517, 36.97094], [-122.11838, 36.96992], [-122.10628, 36.96523], [-122.10235, 36.96312], [-122.09453, 36.96137], [-122.0833, 36.96217], [-122.07179, 36.96202], [-122.04954, 36.96042], [-122.04889, 36.95933], [-122.04334, 36.96025], [-122.03633, 36.96385], [-122.0313, 36.96088], [-122.02984, 36.96067], [-122.02847, 36.96112], [-122.0267, 36.96296], [-122.02366, 36.96275], [-122.026, 36.96491], [-122.02445, 36.96703], [-122.02484, 36.96922], [-122.02626, 36.96918], [-122.02676, 36.97147], [-122.02436, 36.97185], [-122.02347, 36.96929], [-122.02218, 36.97019], [-122.02154, 36.97173], [-122.01681, 36.97399], [-122.01391, 36.97485], [-122.00868, 36.97524], [-122.00806, 36.97169], [-122.0071, 36.97141]]}}, {"type": "Feature", "properties": {"name": "Rough Start", "date": "2026-05-29"}, "geometry": {"type": "LineString", "coordinates": [[-122.42395, 37.77629], [-122.42421, 37.77628], [-122.42432, 37.77623], [-122.42434, 37.77624], [-122.42434, 37.77636], [-122.42437, 37.77649], [-122.42442, 37.77665], [-122.42445, 37.77666], [-122.42461, 37.77664], [-122.4247, 37.77672], [-122.42499, 37.77668], [-122.42524, 37.77663], [-122.42576, 37.77659], [-122.42592, 37.77655], [-122.42625, 37.77653], [-122.42776, 37.77632], [-122.42791, 37.77631], [-122.42797, 37.77643], [-122.4281, 37.77706], [-122.42818, 37.77718], [-122.42828, 37.77719], [-122.4286, 37.77717], [-122.42947, 37.77705], [-122.42963, 37.77706], [-122.43002, 37.77698], [-122.43083, 37.77688], [-122.43129, 37.7768], [-122.43133, 37.77681], [-122.43138, 37.77685], [-122.43139, 37.77689], [-122.43163, 37.77793], [-122.43174, 37.77852], [-122.43179, 37.7786], [-122.43198, 37.77868], [-122.43239, 37.77861], [-122.4333, 37.77851], [-122.43396, 37.77839], [-122.4345, 37.77832], [-122.43496, 37.77829], [-122.43785, 37.77789], [-122.43826, 37.77786], [-122.4387, 37.77778], [-122.43923, 37.77771], [-122.43991, 37.77765], [-122.44037, 37.77757], [-122.44146, 37.77745], [-122.44183, 37.77736], [-122.44232, 37.77733], [-122.44431, 37.77706], [-122.44443, 37.77704], [-122.44485, 37.777], [-122.44553, 37.7769], [-122.44601, 37.77686], [-122.44634, 37.77681], [-122.44654, 37.7768], [-122.44663, 37.77684], [-122.44664, 37.77697], [-122.44669, 37.77709], [-122.44674, 37.7774], [-122.44695, 37.77842], [-122.447, 37.7788], [-122.44703, 37.77896], [-122.44709, 37.77913], [-122.44736, 37.78042], [-122.44753, 37.78148], [-122.44753, 37.78159], [-122.44741, 37.78213], [-122.44736, 37.78218], [-122.44727, 37.78221], [-122.44676, 37.78228], [-122.44648, 37.78236], [-122.44594, 37.78243], [-122.44582, 37.78251], [-122.44585, 37.78272], [-122.44608, 37.78363], [-122.4462, 37.78431], [-122.4463, 37.78474], [-122.44643, 37.7855], [-122.44656, 37.78611], [-122.44658, 37.78632], [-122.44675, 37.78702], [-122.44676, 37.78715], [-122.44674, 37.78722], [-122.44691, 37.78775], [-122.44696, 37.78795], [-122.44696, 37.78805], [-122.44693, 37.7882], [-122.44694, 37.78828], [-122.44717, 37.78821], [-122.44882, 37.78799], [-122.44945, 37.78787], [-122.44969, 37.78788], [-122.4503, 37.78782], [-122.45141, 37.78764], [-122.4535, 37.78741], [-122.4541, 37.78731], [-122.45521, 37.78719], [-122.45585, 37.78708], [-122.4567, 37.78699], [-122.45895, 37.78668], [-122.45918, 37.78668], [-122.45925, 37.78671], [-122.45928, 37.78675], [-122.45927, 37.78697], [-122.45919, 37.78706], [-122.4594, 37.78699], [-122.45964, 37.78695], [-122.46109, 37.78689], [-122.46271, 37.78681], [-122.46351, 37.78679], [-122.46496, 37.78671], [-122.46674, 37.78663], [-122.46905, 37.78651], [-122.46936, 37.78647], [-122.46978, 37.78648], [-122.47025, 37.78647], [-122.47132, 37.78642], [-122.47146, 37.78639], [-122.47161, 37.78638], [-122.473, 37.78638], [-122.47362, 37.78632], [-122.47485, 37.78626], [-122.47667, 37.78619], [-122.48149, 37.78596], [-122.48397, 37.78586], [-122.48453, 37.78582], [-122.48479, 37.78581], [-122.48513, 37.78584], [-122.48521, 37.78619], [-122.48525, 37.78706], [-122.48528, 37.78732], [-122.48527, 37.78753], [-122.48519, 37.78761], [-122.48513, 37.78762], [-122.48424, 37.78766], [-122.48377, 37.78774], [-122.48354, 37.78781], [-122.4832, 37.78795], [-122.48299, 37.78807], [-122.48271, 37.78826], [-122.48241, 37.78855], [-122.48221, 37.78883], [-122.48202, 37.78926], [-122.48179, 37.78998], [-122.48155, 37.79062], [-122.48145, 37.79066], [-122.48123, 37.79061], [-122.48102, 37.79058], [-122.48082, 37.79061], [-122.48066, 37.79061], [-122.48054, 37.79064], [-122.48031, 37.79067]]}}]}